satname,norad_id,inclination_deg,eccentricity,mean_motion_rev_per_day,perigee_km,apogee_km,l1,l2
STARLINK-1460,45676,53.162,0.0001395,15.30152549,474.4006908349638,476.3128155921095,1 45676U 20035V   26077.87374961  .00009351  00000+0  32793-3 0  9999,2 45676  53.1620  22.2883 0001395  93.1421 266.9739 15.30152549320125
STARLINK-1392,45677,53.1552,0.0001744,15.29365665,476.51171654743484,478.9030350657158,1 45677U 20035W   26077.87138130  .00006938  00000+0  25246-3 0  9999,2 45677  53.1552  22.1663 0001744  91.9940 268.1260 15.29365665320165
STARLINK-1394,45679,53.0501,0.0003726,15.51463251,409.9228738762058,414.98322157977145,1 45679U 20035Y   26077.06004179  .00082722  00000+0  13707-2 0  9990,2 45679  53.0501 356.3587 0003726 157.6437 202.4735 15.51463251320455
STARLINK-1402,45685,53.0494,0.0001653,15.46389973,426.17203286200856,428.4219093328529,1 45685U 20035AE  26077.90109512  .00058923  00000+0  11724-2 0  9990,2 45685  53.0494 339.4789 0001653 211.1147 148.9761 15.46389973320770
STARLINK-1404,45686,53.1616,0.0002036,15.30897008,471.73979989449253,474.52963773839565,1 45686U 20035AF  26077.12022672  .00050176  00000+0  16587-2 0  9990,2 45686  53.1616  10.5275 0002036  95.6292 264.4942 15.30897008320262
STARLINK-1413,45689,53.1624,0.0001455,15.30204904,474.2032664027538,476.19758759400975,1 45689U 20035AJ  26077.78093953  .00005045  00000+0  18231-3 0  9999,2 45689  53.1624   7.3501 0001455  82.9174 277.1993 15.30204904320288
STARLINK-1417,45693,53.0535,0.0001746,15.13109216,525.5192063131517,527.9303840520306,1 45693U 20035AN  26077.05415751  .00027194  00000+0  15290-2 0  9998,2 45693  53.0535  16.3826 0001746 249.5740 110.5064 15.13109216320163
STARLINK-1420,45695,53.0533,0.0004721,15.5550729,397.4781219736351,403.87867947499944,1 45695U 20035AQ  26077.87092809  .00078095  00000+0  11186-2 0  9991,2 45695  53.0533 338.0563 0004721 149.5168 210.6117 15.55507290320783
STARLINK-1422,45696,53.1636,0.0001032,15.30194542,474.5240984565744,475.9386336873322,1 45696U 20035AR  26077.52704129  .00002309  00000+0  90070-4 0  9995,2 45696  53.1636   8.5328 0001032 105.1983 254.9132 15.30194542320325
STARLINK-1351,45697,53.0533,0.0004222,15.54141796,401.78477836874754,407.51216241994825,1 45697U 20035AS  26077.72680519  .00078640  00000+0  11841-2 0  9992,2 45697  53.0533 338.0446 0004222 168.6684 191.4421 15.54141796320773
STARLINK-1398,45699,53.0297,0.0006832,16.04628799,257.0827133749781,266.1552759660972,1 45699U 20035AU  26077.94896269  .00431171  96548-4  62718-3 0  9998,2 45699  53.0297 251.3308 0006832 278.2406  81.7850 16.04628799322009
STARLINK-1400,45700,53.0508,0.0007781,15.52204882,405.00780764258343,415.5719575572857,1 45700U 20035AV  26077.90022429  .00076548  00000+0  12357-2 0  9995,2 45700  53.0508 338.6701 0007781 132.3002 227.8668 15.52204882320776
STARLINK-1403,45701,53.1568,0.0001733,15.29356436,476.5468345252193,478.923079745563,1 45701U 20035AW  26077.74845561  .00001240  00000+0  55300-4 0  9992,2 45701  53.1568 354.4916 0001733  83.8740 276.2458 15.29356436320534
STARLINK-1407,45703,53.0324,0.0008146,15.62124109,376.01604801877966,387.0288852217973,1 45703U 20035AY  26077.91667824  .00120395  00000+0  13317-2 0  9990,2 45703  53.0324 270.7335 0008146 140.2060 213.1791 15.62124109  5883
STARLINK-1411,45706,53.0425,0.0004275,15.63943836,373.3904685706657,379.1654933793998,1 45706U 20035BB  26077.90063905  .00080096  00000+0  83199-3 0  9991,2 45706  53.0425 296.3565 0004275 173.0458 187.0616 15.63943836321367
STARLINK-1423,45710,53.0506,0.0007584,15.54697393,397.88957436419605,408.17525213021054,1 45710U 20035BF  26077.72523602  .00088810  00000+0  13068-2 0  9990,2 45710  53.0506 338.4079 0007584 147.5375 212.6103 15.54697393320752
STARLINK-1433,45711,53.0502,0.0007441,15.56726017,392.09846375123107,402.1814309042438,1 45711U 20035BG  26077.86691366  .00087936  00000+0  12009-2 0  9991,2 45711  53.0502 336.6345 0007441 140.2190 219.9367 15.56726017320796
STARLINK-1434,45712,53.0537,0.0005196,15.27583421,479.4737853811894,486.6039193269562,1 45712U 20035BH  26077.01066518  .00028999  00000+0  10693-2 0  9995,2 45712  53.0537 341.4658 0005196 123.4288 236.7208 15.27583421320667
STARLINK-1465,45731,53.0523,0.0003965,15.51537385,409.5443553854011,414.9291217600894,1 45731U 20038B   26077.66739620  .00048004  00000+0  80002-3 0  9992,2 45731  53.0523 180.0324 0003965 329.3304  30.7472 15.51537385317776
STARLINK-1471,45735,53.0453,0.0001089,15.49347923,417.8922785911518,419.3726149766617,1 45735U 20038F   26077.35581729  .00018328  00000+0  33633-3 0  9991,2 45735  53.0453 100.4893 0001089 337.5816  22.5144 15.49347923318874
STARLINK-1480,45741,53.0483,0.0005716,15.48220198,418.04564183259663,425.81948135541006,1 45741U 20038M   26077.64061802  .00020349  00000+0  38719-3 0  9991,2 45741  53.0483 174.4349 0005716 215.0375 145.0257 15.48220198317869
STARLINK-1500,45744,53.0382,0.000203,15.35312896,458.6031254101199,461.37940548589177,1 45744U 20038Q   26077.53214540  .00031185  00000+0  90362-3 0  9993,2 45744  53.0382 151.2556 0002030 308.6888  51.3931 15.35312896318173
STARLINK-1504,45746,53.0213,6e-05,15.53750387,405.3804989779628,406.1945699220969,1 45746U 20038S   26077.75778973  .00025385  00000+0  39530-3 0  9999,2 45746  53.0213  98.4163 0000600  24.6293 335.4745 15.53750387318923
STARLINK-1506,45747,53.0766,0.0002392,15.26433111,484.8434266725644,488.1274620499471,1 45747U 20038T   26077.69641190  .00007262  00000+0  28791-3 0  9994,2 45747  53.0766 160.6951 0002392 286.5136  73.5599 15.26433111318064
STARLINK-1464,45751,53.0524,0.0003044,15.44943825,429.47026962990185,433.61600289685884,1 45751U 20038X   26077.62597360  .00027097  00000+0  57359-3 0  9991,2 45751  53.0524 162.0938 0003044 320.6770  39.4015 15.44943825318030
STARLINK-1477,45754,53.0505,0.0002101,15.14989345,519.5613969191199,522.4604188700177,1 45754U 20038AA  26077.67293137  .00026823  00000+0  14310-2 0  9999,2 45754  53.0505 172.1136 0002101  25.2830 334.8265 15.14989345317898
STARLINK-1478,45755,53.0513,0.0003814,15.5685639,394.1777492027577,399.3456419277354,1 45755U 20038AB  26077.62547964  .00080034  00000+0  10903-2 0  9993,2 45755  53.0513 154.6222 0003814 310.3012  49.7666 15.56856390318124
STARLINK-1484,45756,52.9933,0.0004337,16.20190937,216.17231752388398,221.89470322458237,1 45756U 20038AC  26078.01380626  .01345832  11819-4  66800-3 0  9992,2 45756  52.9933   7.5542 0004337 186.5975 173.5006 16.20190937320208
STARLINK-1493,45759,53.0519,0.0003578,15.51843649,408.91402396106696,413.7725760637559,1 45759U 20038AF  26077.72835149  .00069368  00000+0  11371-2 0  9990,2 45759  53.0519 161.0605 0003578  34.5010 325.6230 15.51843649318043
STARLINK-1494,45760,53.0472,0.0006612,15.75472826,338.8418317030555,347.73024152667404,1 45760U 20038AG  26077.31942334  .00079304  00000+0  51080-3 0  9995,2 45760  53.0472 108.6567 0006612  32.2462 327.8960 15.75472826318758
STARLINK-1502,45764,53.0499,0.0004651,15.48608544,417.63349065617695,423.9578578297569,1 45764U 20038AL  26077.53205405  .00064913  00000+0  11940-2 0  9994,2 45764  53.0499 163.7480 0004651  21.3588 338.7613 15.48608544318008
STARLINK-1470,45772,53.0451,0.000238,15.28811829,477.7309487572311,480.99511877330224,1 45772U 20038AU  26077.56712464  .00034649  00000+0  12276-2 0  9990,2 45772  53.0451 133.0853 0002380  28.6019 331.5110 15.28811829318435
STARLINK-1482,45773,53.1595,0.0001524,15.3069174,472.7029883418172,474.79144265070045,1 45773U 20038AV  26077.49752580  .00035086  00000+0  11732-2 0  9998,2 45773  53.1595 150.0976 0001524  62.2598 297.8558 15.30691740318190
STARLINK-1496,45780,53.0505,0.0002145,15.49802342,415.84616836509394,418.7614124641814,1 45780U 20038BC  26077.86792487  .00069346  00000+0  12223-2 0  9999,2 45780  53.0505 133.8444 0002145 275.0655  85.0108 15.49802342318432
STARLINK-1513,45786,53.1598,0.0001402,15.30186594,474.2942520390279,476.21594318319785,1 45786U 20038BJ  26077.57331565  .00002087  00000+0  82605-4 0  9991,2 45786  53.1598 149.8867 0001402  75.6098 284.5059 15.30186594318207
STARLINK-1522,46027,53.063,0.0002207,15.09472333,536.2849249194578,539.3376244879128,1 46027U 20055A   26077.75386168  .00026268  00000+0  16338-2 0  9993,2 46027  53.0630  85.6165 0002207  76.1594 283.9642 15.09472333310254
STARLINK-1523,46028,53.1523,0.0001768,15.29183821,477.0386674532947,479.46308620654054,1 46028U 20055B   26077.91667824  .00103936  00000+0  35829-2 0  9997,2 46028  53.1523  83.7878 0001768  83.5629 247.3310 15.29183821  5787
STARLINK-1526,46029,53.1518,0.0001185,15.29145103,477.5541166283001,479.1791079844161,1 46029U 20055C   26077.91667824  .00104610  00000+0  36100-2 0  9991,2 46029  53.1518  83.7526 0001185  77.2297 313.3957 15.29145103  5722
STARLINK-1555,46032,53.1543,0.0001541,15.2928126,476.9031102190838,479.01615920190306,1 46032U 20055F   26077.91667824  .00091623  00000+0  31557-2 0  9995,2 46032  53.1543  83.8262 0001541  73.0139 356.4507 15.29281260  5798
STARLINK-1556,46033,53.1556,0.0001858,15.29323349,476.5600021900127,479.1076809547403,1 46033U 20055G   26077.91667824  .00052481  00000+0  18200-2 0  9995,2 46033  53.1556  83.7088 0001858  76.1323 157.4814 15.29323349  5782
STARLINK-1557,46034,53.1551,0.0001886,15.29337179,476.49948023253364,479.08553684315393,1 46034U 20055H   26077.91667824  .00057077  00000+0  19762-2 0  9996,2 46034  53.1551  83.6100 0001886  77.0965 190.9048 15.29337179  5850
STARLINK-1558,46035,53.1557,0.0001198,15.29337671,476.96969795437235,478.61237831230846,1 46035U 20055J   26077.91667824  .00054055  00000+0  18730-2 0  9994,2 46035  53.1557  83.7937 0001198  89.8802  37.1724 15.29337671  5730
STARLINK-1560,46036,53.1559,0.0001875,15.29371009,476.40593729573175,478.9768729476518,1 46036U 20055K   26077.40736489  .00005642  00000+0  20763-3 0  9991,2 46036  53.1559  86.0134 0001875  79.7241 280.3971 15.29371009310238
